{"type": "FeatureCollection", "features": [ {"type": "Feature", "properties": {"norad_id": 57401, "name": "TIANMU-1 09", "group": "weather", "lat": 34.03416047296602, "lon": -135.72102692516074, "alt_km": 477.8218846292684, "timestamp": "2025-12-16T05:49:08.866556+00:00", "meta": {"OBJECT_NAME": "TIANMU-1 09", "OBJECT_ID": "2023-101C", "EPOCH": "2025-12-15T22:53:55.282848", "MEAN_MOTION": 15.28134833, "ECCENTRICITY": 0.00067071, "INCLINATION": 97.2825, "RA_OF_ASC_NODE": 39.0424, "ARG_OF_PERICENTER": 75.1717, "MEAN_ANOMALY": 285.0266, "EPHEMERIS_TYPE": 0, "CLASSIFICATION_TYPE": "U", "NORAD_CAT_ID": 57401, "ELEMENT_SET_NO": 999, "REV_AT_EPOCH": 13364, "BSTAR": 0.00021764868, "MEAN_MOTION_DOT": 5.9e-05, "MEAN_MOTION_DDOT": 0}, "tle": {"line1": "1 57401U 23101C   25349.95411207  .00005900  00000+0  21765-3 0  9993", "line2": "2 57401  97.2825  39.0424 0006707  75.1717 285.0266 15.28134833133646"}}, "geometry": {"type": "Point", "coordinates": [-135.72102692516074, 34.03416047296602]}}, {"type": "Feature", "properties": {"norad_id": 57402, "name": "TIANMU-1 10", "group": "weather", "lat": -42.45708764772867, "lon": 46.90478344441686, "alt_km": 490.62883693530057, "timestamp": "2025-12-16T05:49:08.866570+00:00", "meta": {"OBJECT_NAME": "TIANMU-1 10", "OBJECT_ID": "2023-101D", "EPOCH": "2025-12-15T22:08:55.212864", "MEAN_MOTION": 15.28125262, "ECCENTRICITY": 0.00084441, "INCLINATION": 97.2906, "RA_OF_ASC_NODE": 39.8651, "ARG_OF_PERICENTER": 74.2447, "MEAN_ANOMALY": 285.9724, "EPHEMERIS_TYPE": 0, "CLASSIFICATION_TYPE": "U", "NORAD_CAT_ID": 57402, "ELEMENT_SET_NO": 999, "REV_AT_EPOCH": 13363, "BSTAR": 0.00020595743, "MEAN_MOTION_DOT": 5.579e-05, "MEAN_MOTION_DDOT": 0}, "tle": {"line1": "1 57402U 23101D   25349.92286126  .00005579  00000+0  20596-3 0  9994", "line2": "2 57402  97.2906  39.8651 0008444  74.2447 285.9724 15.28125262133630"}}, "geometry": {"type": "Point", "coordinates": [46.90478344441686, -42.45708764772867]}}, {"type": "Feature", "properties": {"norad_id": 57490, "name": "FENGYUN 3F", "group": "weather", "lat": -63.8845849543099, "lon": 76.69730254271057, "alt_km": 833.3762308405749, "timestamp": "2025-12-16T05:49:08.866581+00:00", "meta": {"OBJECT_NAME": "FENGYUN 3F", "OBJECT_ID": "2023-111A", "EPOCH": "2025-12-15T23:21:40.597920", "MEAN_MOTION": 14.19894414, "ECCENTRICITY": 6.906e-05, "INCLINATION": 98.708, "RA_OF_ASC_NODE": 58.2146, "ARG_OF_PERICENTER": 107.588, "MEAN_ANOMALY": 252.5372, "EPHEMERIS_TYPE": 0, "CLASSIFICATION_TYPE": "U", "NORAD_CAT_ID": 57490, "ELEMENT_SET_NO": 999, "REV_AT_EPOCH": 12286, "BSTAR": 5.3724493e-05, "MEAN_MOTION_DOT": 7e-07, "MEAN_MOTION_DDOT": 0}, "tle": {"line1": "1 57490U 23111A   25349.97338655  .00000070  00000+0  53724-4 0  9993", "line2": "2 57490  98.7080  58.2146 0000690 107.5880 252.5372 14.19894414122869"}}, "geometry": {"type": "Point", "coordinates": [76.69730254271057, -63.8845849543099]}}, {"type": "Feature", "properties": {"norad_id": 58584, "name": "ARKTIKA-M 2", "group": "weather", "lat": 27.858254950306772, "lon": -20.985158798806776, "alt_km": 14901.180193568729, "timestamp": "2025-12-16T05:49:08.866593+00:00", "meta": {"OBJECT_NAME": "ARKTIKA-M 2", "OBJECT_ID": "2023-198A", "EPOCH": "2025-12-15T07:41:54.278304", "MEAN_MOTION": 2.00603484, "ECCENTRICITY": 0.68650912, "INCLINATION": 63.2249, "RA_OF_ASC_NODE": 174.6089, "ARG_OF_PERICENTER": 268.096, "MEAN_ANOMALY": 18.8351, "EPHEMERIS_TYPE": 0, "CLASSIFICATION_TYPE": "U", "NORAD_CAT_ID": 58584, "ELEMENT_SET_NO": 999, "REV_AT_EPOCH": 1463, "BSTAR": 0, "MEAN_MOTION_DOT": 2.02e-06, "MEAN_MOTION_DDOT": 0}, "tle": {"line1": "1 58584U 23198A   25349.32076711  .00000202  00000+0  00000+0 0  9995", "line2": "2 58584  63.2249 174.6089 6865091 268.0960  18.8351  2.00603484 14636"}}, "geometry": {"type": "Point", "coordinates": [-20.985158798806776, 27.858254950306772]}}, {"type": "Feature", "properties": {"norad_id": 58645, "name": "TIANMU-1 11", "group": "weather", "lat": 82.17578532139342, "lon": -100.02146432493856, "alt_km": 489.25672201824545, "timestamp": "2025-12-16T05:49:08.866605+00:00", "meta": {"OBJECT_NAME": "TIANMU-1 11", "OBJECT_ID": "2023-205A", "EPOCH": "2025-12-16T00:41:19.256640", "MEAN_MOTION": 15.2464174, "ECCENTRICITY": 0.00077011, "INCLINATION": 97.3606, "RA_OF_ASC_NODE": 9.5945, "ARG_OF_PERICENTER": 296.7792, "MEAN_ANOMALY": 63.2657, "EPHEMERIS_TYPE": 0, "CLASSIFICATION_TYPE": "U", "NORAD_CAT_ID": 58645, "ELEMENT_SET_NO": 999, "REV_AT_EPOCH": 10959, "BSTAR": 0.00019331526, "MEAN_MOTION_DOT": 4.704e-05, "MEAN_MOTION_DDOT": 0}, "tle": {"line1": "1 58645U 23205A   25350.02869510  .00004704  00000+0  19332-3 0  9991", "line2": "2 58645  97.3606   9.5945 0007701 296.7792  63.2657 15.24641740109597"}}, "geometry": {"type": "Point", "coordinates": [-100.02146432493856, 82.17578532139342]}}, {"type": "Feature", "properties": {"norad_id": 58646, "name": "TIANMU-1 12", "group": "weather", "lat": -55.98167012455691, "lon": 20.64822170862538, "alt_km": 495.78237414630803, "timestamp": "2025-12-16T05:49:08.866615+00:00", "meta": {"OBJECT_NAME": "TIANMU-1 12", "OBJECT_ID": "2023-205B", "EPOCH": "2025-12-15T23:45:58.292064", "MEAN_MOTION": 15.24525741, "ECCENTRICITY": 0.00057916, "INCLINATION": 97.3593, "RA_OF_ASC_NODE": 9.3612, "ARG_OF_PERICENTER": 276.5298, "MEAN_ANOMALY": 83.528, "EPHEMERIS_TYPE": 0, "CLASSIFICATION_TYPE": "U", "NORAD_CAT_ID": 58646, "ELEMENT_SET_NO": 999, "REV_AT_EPOCH": 10957, "BSTAR": 0.00020348665, "MEAN_MOTION_DOT": 4.937e-05, "MEAN_MOTION_DDOT": 0}, "tle": {"line1": "1 58646U 23205B   25349.99025801  .00004937  00000+0  20349-3 0  9991", "line2": "2 58646  97.3593   9.3612 0005791 276.5298  83.5280 15.24525741109573"}}, "geometry": {"type": "Point", "coordinates": [20.64822170862538, -55.98167012455691]}}, {"type": "Feature", "properties": {"norad_id": 58647, "name": "TIANMU-1 13", "group": "weather", "lat": 59.29759520656126, "lon": -157.61240014808033, "alt_km": 489.1525476977604, "timestamp": "2025-12-16T05:49:08.866628+00:00", "meta": {"OBJECT_NAME": "TIANMU-1 13", "OBJECT_ID": "2023-205C", "EPOCH": "2025-12-16T00:34:08.862816", "MEAN_MOTION": 15.24568595, "ECCENTRICITY": 0.00060705, "INCLINATION": 97.3622, "RA_OF_ASC_NODE": 9.5963, "ARG_OF_PERICENTER": 252.3992, "MEAN_ANOMALY": 107.6583, "EPHEMERIS_TYPE": 0, "CLASSIFICATION_TYPE": "U", "NORAD_CAT_ID": 58647, "ELEMENT_SET_NO": 999, "REV_AT_EPOCH": 10957, "BSTAR": 0.0002038721, "MEAN_MOTION_DOT": 4.953e-05, "MEAN_MOTION_DDOT": 0}, "tle": {"line1": "1 58647U 23205C   25350.02371369  .00004953  00000+0  20387-3 0  9991", "line2": "2 58647  97.3622   9.5963 0006070 252.3992 107.6583 15.24568595109570"}}, "geometry": {"type": "Point", "coordinates": [-157.61240014808033, 59.29759520656126]}}, {"type": "Feature", "properties": {"norad_id": 58648, "name": "TIANMU-1 14", "group": "weather", "lat": -30.491951959027283, "lon": -175.2056619766867, "alt_km": 494.9723825697156, "timestamp": "2025-12-16T05:49:08.866651+00:00", "meta": {"OBJECT_NAME": "TIANMU-1 14", "OBJECT_ID": "2023-205D", "EPOCH": "2025-12-16T00:10:17.658912", "MEAN_MOTION": 15.24551965, "ECCENTRICITY": 0.00068523, "INCLINATION": 97.3554, "RA_OF_ASC_NODE": 8.9258, "ARG_OF_PERICENTER": 258.3291, "MEAN_ANOMALY": 101.7178, "EPHEMERIS_TYPE": 0, "CLASSIFICATION_TYPE": "U", "NORAD_CAT_ID": 58648, "ELEMENT_SET_NO": 999, "REV_AT_EPOCH": 10957, "BSTAR": 0.00020951039, "MEAN_MOTION_DOT": 5.09e-05, "MEAN_MOTION_DDOT": 0}, "tle": {"line1": "1 58648U 23205D   25350.00714883  .00005090  00000+0  20951-3 0  9992", "line2": "2 58648  97.3554   8.9258 0006852 258.3291 101.7178 15.24551965109579"}}, "geometry": {"type": "Point", "coordinates": [-175.2056619766867, -30.491951959027283]}}, {"type": "Feature", "properties": {"norad_id": 58660, "name": "TIANMU-1 19", "group": "weather", "lat": 31.778429009326995, "lon": -74.08493542248843, "alt_km": 480.30368702871056, "timestamp": "2025-12-16T05:49:08.866663+00:00", "meta": {"OBJECT_NAME": "TIANMU-1 19", "OBJECT_ID": "2023-208A", "EPOCH": "2025-12-15T22:53:12.367104", "MEAN_MOTION": 15.27911472, "ECCENTRICITY": 0.00042126, "INCLINATION": 97.4387, "RA_OF_ASC_NODE": 100.9841, "ARG_OF_PERICENTER": 238.6093, "MEAN_ANOMALY": 121.4735, "EPHEMERIS_TYPE": 0, "CLASSIFICATION_TYPE": "U", "NORAD_CAT_ID": 58660, "ELEMENT_SET_NO": 999, "REV_AT_EPOCH": 10931, "BSTAR": 0.00025665393, "MEAN_MOTION_DOT": 6.918e-05, "MEAN_MOTION_DDOT": 0}, "tle": {"line1": "1 58660U 23208A   25349.95361536  .00006918  00000+0  25665-3 0  9991", "line2": "2 58660  97.4387 100.9841 0004212 238.6093 121.4735 15.27911472109314"}}, "geometry": {"type": "Point", "coordinates": [-74.08493542248843, 31.778429009326995]}}, {"type": "Feature", "properties": {"norad_id": 58661, "name": "TIANMU-1 20", "group": "weather", "lat": -56.407208752969154, "lon": -89.61134291688411, "alt_km": 481.3617238272718, "timestamp": "2025-12-16T05:49:08.866677+00:00", "meta": {"OBJECT_NAME": "TIANMU-1 20", "OBJECT_ID": "2023-208B", "EPOCH": "2025-12-15T22:30:10.044864", "MEAN_MOTION": 15.29101776, "ECCENTRICITY": 0.00063676, "INCLINATION": 97.4325, "RA_OF_ASC_NODE": 101.4189, "ARG_OF_PERICENTER": 252.4153, "MEAN_ANOMALY": 107.6391, "EPHEMERIS_TYPE": 0, "CLASSIFICATION_TYPE": "U", "NORAD_CAT_ID": 58661, "ELEMENT_SET_NO": 999, "REV_AT_EPOCH": 10938, "BSTAR": 0.00025954376, "MEAN_MOTION_DOT": 7.26e-05, "MEAN_MOTION_DDOT": 0}, "tle": {"line1": "1 58661U 23208B   25349.93761626  .00007260  00000+0  25954-3 0  9996", "line2": "2 58661  97.4325 101.4189 0006367 252.4153 107.6391 15.29101776109383"}}, "geometry": {"type": "Point", "coordinates": [-89.61134291688411, -56.407208752969154]}}]}